{
  "norad_id": 64448,
  "name": "STARLINK-34433",
  "history": [
    {
      "epoch": "2026-04-11T20:04:31.757952Z",
      "apogee_km": 475.94539051033644,
      "perigee_km": 474.4746622384755,
      "latitude_deg": -3.375296473164445e-05,
      "longitude_deg": 153.69760048952875,
      "height_km": 475.9694841001042,
      "semi_major_axis_km": 6853.347026374406,
      "eccentricity": 0.0001073,
      "inclination_deg": 53.1591,
      "raan_deg": 294.8802,
      "arg_perigee_deg": 79.1184,
      "mean_anomaly_deg": 280.9937,
      "mean_motion_rev_day": 15.30201689
    },
    {
      "epoch": "2026-04-13T04:59:38.885280Z",
      "apogee_km": 475.86283489732614,
      "perigee_km": 474.5548053141001,
      "latitude_deg": -4.067209966106637e-06,
      "longitude_deg": 12.196303992894459,
      "height_km": 476.10292789957003,
      "semi_major_axis_km": 6853.345820105713,
      "eccentricity": 9.543e-05,
      "inclination_deg": 53.1583,
      "raan_deg": 288.5105,
      "arg_perigee_deg": 89.631,
      "mean_anomaly_deg": 270.48,
      "mean_motion_rev_day": 15.30202093
    },
    {
      "epoch": "2026-04-14T18:36:57.182976Z",
      "apogee_km": 475.74059179708,
      "perigee_km": 474.7975631208219,
      "latitude_deg": 1.7485452794303587e-06,
      "longitude_deg": 159.039099218455,
      "height_km": 475.9271656440011,
      "semi_major_axis_km": 6853.406077458951,
      "eccentricity": 6.88e-05,
      "inclination_deg": 53.1582,
      "raan_deg": 281.2246,
      "arg_perigee_deg": 300.8946,
      "mean_anomaly_deg": 59.1987,
      "mean_motion_rev_day": 15.30181912
    },
    {
      "epoch": "2026-04-15T18:07:45.350400Z",
      "apogee_km": 475.9200075715853,
      "perigee_km": 474.51232883083685,
      "latitude_deg": 3.4150291928662115e-05,
      "longitude_deg": 160.82766741369596,
      "height_km": 476.3970763102449,
      "semi_major_axis_km": 6853.353168201211,
      "eccentricity": 0.0001027,
      "inclination_deg": 53.1593,
      "raan_deg": 276.6795,
      "arg_perigee_deg": 113.6616,
      "mean_anomaly_deg": 246.4493,
      "mean_motion_rev_day": 15.30199632
    },
    {
      "epoch": "2026-04-16T17:38:32.403264Z",
      "apogee_km": 475.8257326685789,
      "perigee_km": 474.48111708721717,
      "latitude_deg": 4.337608640137742e-05,
      "longitude_deg": 162.61417508541663,
      "height_km": 476.2809607085838,
      "semi_major_axis_km": 6853.290424877898,
      "eccentricity": 9.81e-05,
      "inclination_deg": 53.159,
      "raan_deg": 272.1277,
      "arg_perigee_deg": 109.9238,
      "mean_anomaly_deg": 250.1869,
      "mean_motion_rev_day": 15.30220646
    },
    {
      "epoch": "2026-04-17T21:51:28.922688Z",
      "apogee_km": 475.6342524467764,
      "perigee_km": 474.7101522339335,
      "latitude_deg": -6.413367909310983e-06,
      "longitude_deg": 92.75896432686307,
      "height_km": 476.14228409289535,
      "semi_major_axis_km": 6853.309202340355,
      "eccentricity": 6.742e-05,
      "inclination_deg": 53.16,
      "raan_deg": 266.6668,
      "arg_perigee_deg": 98.8642,
      "mean_anomaly_deg": 261.2435,
      "mean_motion_rev_day": 15.30214357
    },
    {
      "epoch": "2026-04-18T19:48:13.554432Z",
      "apogee_km": 475.82059973230935,
      "perigee_km": 474.5376589528969,
      "latitude_deg": -1.1386515686847785e-05,
      "longitude_deg": 118.42251596990798,
      "height_km": 476.2875412851093,
      "semi_major_axis_km": 6853.316129342603,
      "eccentricity": 9.36e-05,
      "inclination_deg": 53.1602,
      "raan_deg": 262.4176,
      "arg_perigee_deg": 109.09,
      "mean_anomaly_deg": 251.0202,
      "mean_motion_rev_day": 15.30212037
    },
    {
      "epoch": "2026-04-19T16:10:55.295904Z",
      "apogee_km": 476.27194847599003,
      "perigee_km": 474.1227428251932,
      "latitude_deg": 5.777097497520501e-05,
      "longitude_deg": 167.965838382617,
      "height_km": 476.4848402689786,
      "semi_major_axis_km": 6853.334345650591,
      "eccentricity": 0.0001568,
      "inclination_deg": 53.1604,
      "raan_deg": 258.4717,
      "arg_perigee_deg": 111.2602,
      "mean_anomaly_deg": 248.8567,
      "mean_motion_rev_day": 15.30205936
    },
    {
      "epoch": "2026-04-20T09:25:30.472320Z",
      "apogee_km": 475.6113751514549,
      "perigee_km": 474.79911702844765,
      "latitude_deg": 6.147416184146674e-05,
      "longitude_deg": -94.72617767994949,
      "height_km": 476.4959053278268,
      "semi_major_axis_km": 6853.342246089951,
      "eccentricity": 5.926e-05,
      "inclination_deg": 53.1617,
      "raan_deg": 255.1344,
      "arg_perigee_deg": 195.8994,
      "mean_anomaly_deg": 164.1989,
      "mean_motion_rev_day": 15.3020329
    },
    {
      "epoch": "2026-04-21T15:12:30.949056Z",
      "apogee_km": 475.8113150738054,
      "perigee_km": 474.5722332314381,
      "latitude_deg": -5.209425570028602e-06,
      "longitude_deg": 171.53631976322865,
      "height_km": 476.1878652211933,
      "semi_major_axis_km": 6853.328774152622,
      "eccentricity": 9.04e-05,
      "inclination_deg": 53.161,
      "raan_deg": 249.3721,
      "arg_perigee_deg": 99.0451,
      "mean_anomaly_deg": 261.0652,
      "mean_motion_rev_day": 15.30207802
    },
    {
      "epoch": "2026-04-22T08:27:06.323328Z",
      "apogee_km": 476.03379477806993,
      "perigee_km": 474.3909098713302,
      "latitude_deg": -4.1516291249334095e-06,
      "longitude_deg": -91.15382546186673,
      "height_km": 476.13273327851476,
      "semi_major_axis_km": 6853.3493523247,
      "eccentricity": 0.00011986,
      "inclination_deg": 53.1619,
      "raan_deg": 246.0375,
      "arg_perigee_deg": 91.5349,
      "mean_anomaly_deg": 268.5789,
      "mean_motion_rev_day": 15.3020091
    },
    {
      "epoch": "2026-04-23T01:41:41.372736Z",
      "apogee_km": 475.4162599098854,
      "perigee_km": 474.9476299604303,
      "latitude_deg": 6.712478709473732e-05,
      "longitude_deg": 6.1525390488764105,
      "height_km": 476.3159956971124,
      "semi_major_axis_km": 6853.318944935158,
      "eccentricity": 3.419e-05,
      "inclination_deg": 53.1605,
      "raan_deg": 242.698,
      "arg_perigee_deg": 179.4489,
      "mean_anomaly_deg": 180.6513,
      "mean_motion_rev_day": 15.30211094
    }
  ]
}